[{"OBJECT_NAME":"STARLINK-5692","OBJECT_ID":"2023-015AL","EPOCH":"2026-03-09T22:00:01.999584","MEAN_MOTION":15.14614631,"ECCENTRICITY":0.00018517,"INCLINATION":43.0005,"RA_OF_ASC_NODE":337.2774,"ARG_OF_PERICENTER":261.2422,"MEAN_ANOMALY":100.4471,"EPHEMERIS_TYPE":0,"CLASSIFICATION_TYPE":"U","NORAD_CAT_ID":55483,"ELEMENT_SET_NO":999,"REV_AT_EPOCH":577,"BSTAR":0.0025102028,"MEAN_MOTION_DOT":0.00047286,"MEAN_MOTION_DDOT":0},{"OBJECT_NAME":"FLOCK 4H-16","OBJECT_ID":"2025-276BF","EPOCH":"2026-03-09T18:22:00.923808","MEAN_MOTION":15.18505927,"ECCENTRICITY":0.00041583,"INCLINATION":97.4302,"RA_OF_ASC_NODE":144.0218,"ARG_OF_PERICENTER":10.1736,"MEAN_ANOMALY":349.9581,"EPHEMERIS_TYPE":0,"CLASSIFICATION_TYPE":"U","NORAD_CAT_ID":66719,"ELEMENT_SET_NO":999,"REV_AT_EPOCH":1532,"BSTAR":0.00041273119,"MEAN_MOTION_DOT":8.452e-5,"MEAN_MOTION_DDOT":0}]
